ONEWEB-0395             
1 50475U 21132G   26001.68748934 -.00000089  00000+0 -28571-3 0  9992
2 50475  87.8828  54.2271 0001674 107.5232 252.6079 13.11414232193896
ONEWEB-0396             
1 50476U 21132H   26001.92170989  .00000058  00000+0  11428-3 0  9996
2 50476  87.9172   8.4659 0001824  92.5421 267.5920 13.18687348199726
ONEWEB-0397             
1 50477U 21132J   26001.93654536  .00000076  00000+0  15923-3 0  9997
2 50477  87.9172   8.4634 0001955  90.2125 269.9231 13.18684203199707
ONEWEB-0398             
1 50478U 21132K   26001.65528690  .00000289  00000+0  78015-3 0  9995
2 50478  87.8845  54.2079 0001444 108.6248 251.5037 13.11419003193789
ONEWEB-0399             
1 50479U 21132L   26001.64171291 -.00000200  00000+0 -59897-3 0  9998
2 50479  87.8837  54.2231 0002248 104.4465 255.6912 13.11417523193770
ONEWEB-0400             
1 50480U 21132M   26001.99097705 -.00000256  00000+0 -68258-3 0  9997
2 50480  87.9170   8.4421 0001572  93.5058 266.6254 13.18685254199705
ONEWEB-0401             
1 50481U 21132N   26001.95965778  .00000093  00000+0  20311-3 0  9993
2 50481  87.9170   8.4452 0001856  83.0666 277.0677 13.18686682199705
ONEWEB-0402             
1 50482U 21132P   26001.92333463 -.00001710  00000+0 -43708-2 0  9994
2 50482  87.9173   8.4442 0002117  78.9617 281.1753 13.18695122199720
